STARLINK-3093
1 19141C 21082M   21326.13611192 -.00661587  00000-0 -11144-1 0  3261
2 19141  70.0003 293.3864 0003456 272.8805  46.8158 15.52192090    13
